$$SOE
2460714.500000000, A.D. 2025-Feb-08 00:00:00.0000, -4.819290733051200E+09, 4.540975273428787E+09, -1.074206719361188E+08,
2460721.500000000, A.D. 2025-Feb-15 00:00:00.0000, -4.821099143704973E+09, 4.538985723211722E+09, -1.074855094400811E+08,
2460728.500000000, A.D. 2025-Feb-22 00:00:00.0000, -4.822906756358840E+09, 4.536995323629729E+09, -1.075503283096359E+08,
2460735.500000000, A.D. 2025-Mar-01 00:00:00.0000, -4.824713568410675E+09, 4.535004075390260E+09, -1.076151287034836E+08,
2460742.500000000, A.D. 2025-Mar-08 00:00:00.0000, -4.826519576176502E+09, 4.533011979085419E+09, -1.076799109312875E+08,
2460749.500000000, A.D. 2025-Mar-15 00:00:00.0000, -4.828324774912733E+09, 4.531019037027462E+09, -1.077446752981501E+08,
2460756.500000000, A.D. 2025-Mar-22 00:00:00.0000, -4.830129161046566E+09, 4.529025253671370E+09, -1.078094218606927E+08,
2460763.500000000, A.D. 2025-Mar-29 00:00:00.0000, -4.831932733037049E+09, 4.527030633782697E+09, -1.078741504919229E+08,
2460770.500000000, A.D. 2025-Apr-05 00:00:00.0000, -4.833735490541585E+09, 4.525035181489174E+09, -1.079388610285184E+08,
2460777.500000000, A.D. 2025-Apr-12 00:00:00.0000, -4.835537433813798E+09, 4.523038900320208E+09, -1.080035533156848E+08,
2460784.500000000, A.D. 2025-Apr-19 00:00:00.0000, -4.837338563519983E+09, 4.521041793353246E+09, -1.080682272047210E+08,
2460791.500000000, A.D. 2025-Apr-26 00:00:00.0000, -4.839138880702477E+09, 4.519043863264294E+09, -1.081328825450714E+08,
2460798.500000000, A.D. 2025-May-03 00:00:00.0000, -4.840938386776254E+09, 4.517045112302151E+09, -1.081975191799450E+08,
2460805.500000000, A.D. 2025-May-10 00:00:00.0000, -4.842737083530176E+09, 4.515045542195375E+09, -1.082621369475975E+08,
2460812.500000000, A.D. 2025-May-17 00:00:00.0000, -4.844534973096169E+09, 4.513045153951277E+09, -1.083267356951272E+08,
2460819.500000000, A.D. 2025-May-24 00:00:00.0000, -4.846332057712380E+09, 4.511043947492738E+09, -1.083913153252892E+08,
2460826.500000000, A.D. 2025-May-31 00:00:00.0000, -4.848128338862566E+09, 4.509041921444118E+09, -1.084558758892708E+08,
2460833.500000000, A.D. 2025-Jun-07 00:00:00.0000, -4.849923816192648E+09, 4.507039074271236E+09, -1.085204175902336E+08,
2460840.500000000, A.D. 2025-Jun-14 00:00:00.0000, -4.851718488568975E+09, 4.505035406108782E+09, -1.085849405352173E+08,
2460847.500000000, A.D. 2025-Jun-21 00:00:00.0000, -4.853512356061542E+09, 4.503030918003985E+09, -1.086494446143465E+08,
2460854.500000000, A.D. 2025-Jun-28 00:00:00.0000, -4.855305419723956E+09, 4.501025610341398E+09, -1.087139296499989E+08,
2460861.500000000, A.D. 2025-Jul-05 00:00:00.0000, -4.857097680686890E+09, 4.499019482605406E+09, -1.087783955005519E+08,
2460868.500000000, A.D. 2025-Jul-12 00:00:00.0000, -4.858889139755992E+09, 4.497012533675295E+09, -1.088428420752237E+08,
2460875.500000000, A.D. 2025-Jul-19 00:00:00.0000, -4.860679797324717E+09, 4.495004762077957E+09, -1.089072693243237E+08,
2460882.500000000, A.D. 2025-Jul-26 00:00:00.0000, -4.862469653392115E+09, 4.492996166141787E+09, -1.089716772286997E+08,
2460889.500000000, A.D. 2025-Aug-02 00:00:00.0000, -4.864258707620225E+09, 4.490986744073612E+09, -1.090360657925119E+08,
2460896.500000000, A.D. 2025-Aug-09 00:00:00.0000, -4.866046959407617E+09, 4.488976493944235E+09, -1.091004350425220E+08,
2460903.500000000, A.D. 2025-Aug-16 00:00:00.0000, -4.867834407902184E+09, 4.486965413519629E+09, -1.091647850459576E+08,
2460910.500000000, A.D. 2025-Aug-23 00:00:00.0000, -4.869621051660510E+09, 4.484953499954556E+09, -1.092291159722273E+08,
2460917.500000000, A.D. 2025-Aug-30 00:00:00.0000, -4.871406887624915E+09, 4.482940750062880E+09, -1.092934281700783E+08,
2460924.500000000, A.D. 2025-Sep-06 00:00:00.0000, -4.873191910836300E+09, 4.480927162165051E+09, -1.093577220481257E+08,
2460931.500000000, A.D. 2025-Sep-13 00:00:00.0000, -4.874976116553508E+09, 4.478912737030010E+09, -1.094219978081644E+08,
2460938.500000000, A.D. 2025-Sep-20 00:00:00.0000, -4.876759501506041E+09, 4.476897476267286E+09, -1.094862554656217E+08,
2460945.500000000, A.D. 2025-Sep-27 00:00:00.0000, -4.878542063221503E+09, 4.474881381280981E+09, -1.095504949997463E+08,
2460952.500000000, A.D. 2025-Oct-04 00:00:00.0000, -4.880323799444534E+09, 4.472864453325068E+09, -1.096147164043050E+08,
2460959.500000000, A.D. 2025-Oct-11 00:00:00.0000, -4.882104708020839E+09, 4.470846693717165E+09, -1.096789196814897E+08,
2460966.500000000, A.D. 2025-Oct-18 00:00:00.0000, -4.883884786962666E+09, 4.468828103936664E+09, -1.097431048274279E+08,
2460973.500000000, A.D. 2025-Oct-25 00:00:00.0000, -4.885664034556208E+09, 4.466808685618514E+09, -1.098072718212314E+08,
2460980.500000000, A.D. 2025-Nov-01 00:00:00.0000, -4.887442449471504E+09, 4.464788440458576E+09, -1.098714206200402E+08,
2460987.500000000, A.D. 2025-Nov-08 00:00:00.0000, -4.889220030840356E+09, 4.462767369999578E+09, -1.099355511659472E+08,
2460994.500000000, A.D. 2025-Nov-15 00:00:00.0000, -4.890996778154428E+09, 4.460745475239576E+09, -1.099996634233491E+08,
2461001.500000000, A.D. 2025-Nov-22 00:00:00.0000, -4.892772690580898E+09, 4.458722756283508E+09, -1.100637574658878E+08,
2461008.500000000, A.D. 2025-Nov-29 00:00:00.0000, -4.894547765848961E+09, 4.456699213173227E+09, -1.101278335063891E+08,
2461015.500000000, A.D. 2025-Dec-06 00:00:00.0000, -4.896322000984597E+09, 4.454674847760452E+09, -1.101918916722252E+08,
2461022.500000000, A.D. 2025-Dec-13 00:00:00.0000, -4.898095394460041E+09, 4.452649663252611E+09, -1.102559318414731E+08,
2461029.500000000, A.D. 2025-Dec-20 00:00:00.0000, -4.899867946264784E+09, 4.450623662455133E+09, -1.103199537767642E+08,
2461036.500000000, A.D. 2025-Dec-27 00:00:00.0000, -4.901639656971910E+09, 4.448596847301888E+09, -1.103839572466424E+08,
2461043.500000000, A.D. 2026-Jan-03 00:00:00.0000, -4.903410527259019E+09, 4.446569219058782E+09, -1.104479420509107E+08,
2461050.500000000, A.D. 2026-Jan-10 00:00:00.0000, -4.905180557773944E+09, 4.444540778522295E+09, -1.105119080154874E+08,
2461057.500000000, A.D. 2026-Jan-17 00:00:00.0000, -4.906949749112726E+09, 4.442511526122190E+09, -1.105758549855175E+08,
2461064.500000000, A.D. 2026-Jan-24 00:00:00.0000, -4.908718101831893E+09, 4.440481461951959E+09, -1.106397828219366E+08,
2461071.500000000, A.D. 2026-Jan-31 00:00:00.0000, -4.910485616471582E+09, 4.438450585720531E+09, -1.107036914041536E+08,
2461078.500000000, A.D. 2026-Feb-07 00:00:00.0000, -4.912252293528008E+09, 4.436418896568801E+09, -1.107675806490474E+08,
2461085.500000000, A.D. 2026-Feb-14 00:00:00.0000, -4.914018133122197E+09, 4.434386392736595E+09, -1.108314505706534E+08,
2461092.500000000, A.D. 2026-Feb-21 00:00:00.0000, -4.915783133977446E+09, 4.432353071657876E+09, -1.108953013688011E+08,
2461099.500000000, A.D. 2026-Feb-28 00:00:00.0000, -4.917547292790320E+09, 4.430318931638277E+09, -1.109591333528669E+08,
2461106.500000000, A.D. 2026-Mar-07 00:00:00.0000, -4.919310606053776E+09, 4.428283973165372E+09, -1.110229466710932E+08,
2461113.500000000, A.D. 2026-Mar-14 00:00:00.0000, -4.921073071556657E+09, 4.426248197519057E+09, -1.110867412906289E+08,
2461120.500000000, A.D. 2026-Mar-21 00:00:00.0000, -4.922834687776714E+09, 4.424211605580142E+09, -1.111505171548619E+08,
2461127.500000000, A.D. 2026-Mar-28 00:00:00.0000, -4.924595453176532E+09, 4.422174197865801E+09, -1.112142742495725E+08,
2461134.500000000, A.D. 2026-Apr-04 00:00:00.0000, -4.926355366006074E+09, 4.420135974826274E+09, -1.112780126012921E+08,
2461141.500000000, A.D. 2026-Apr-11 00:00:00.0000, -4.928114424337948E+09, 4.418096937042819E+09, -1.113417322622066E+08,
2461148.500000000, A.D. 2026-Apr-18 00:00:00.0000, -4.929872626175958E+09, 4.416057085320230E+09, -1.114054332965894E+08,
2461155.500000000, A.D. 2026-Apr-25 00:00:00.0000, -4.931629969590904E+09, 4.414016420688611E+09, -1.114691157715349E+08,
2461162.500000000, A.D. 2026-May-02 00:00:00.0000, -4.933386452852589E+09, 4.411974944284755E+09, -1.115327797570543E+08,
2461169.500000000, A.D. 2026-May-09 00:00:00.0000, -4.935142074433036E+09, 4.409932657046949E+09, -1.115964253522041E+08,
2461176.500000000, A.D. 2026-May-16 00:00:00.0000, -4.936896832502642E+09, 4.407889559361536E+09, -1.116600527604749E+08,
2461183.500000000, A.D. 2026-May-23 00:00:00.0000, -4.938650723867085E+09, 4.405845651683646E+09, -1.117236623355796E+08,
2461190.500000000, A.D. 2026-May-30 00:00:00.0000, -4.940403744423277E+09, 4.403800936451715E+09, -1.117872543808789E+08,
2461197.500000000, A.D. 2026-Jun-06 00:00:00.0000, -4.942155891451531E+09, 4.401755418022210E+09, -1.118508289409435E+08,
2461204.500000000, A.D. 2026-Jun-13 00:00:00.0000, -4.943907164077948E+09, 4.399709100823573E+09, -1.119143859053574E+08,
2461211.500000000, A.D. 2026-Jun-20 00:00:00.0000, -4.945657562408033E+09, 4.397661988655478E+09, -1.119779251398809E+08,
2461218.500000000, A.D. 2026-Jun-27 00:00:00.0000, -4.947407087029892E+09, 4.395614084793618E+09, -1.120414465172255E+08,
2461225.500000000, A.D. 2026-Jul-04 00:00:00.0000, -4.949155738887136E+09, 4.393565392125135E+09, -1.121049499110320E+08,
2461232.500000000, A.D. 2026-Jul-11 00:00:00.0000, -4.950903519267572E+09, 4.391515913182840E+09, -1.121684351873963E+08,
2461239.500000000, A.D. 2026-Jul-18 00:00:00.0000, -4.952650429814963E+09, 4.389465650104031E+09, -1.122319022006106E+08,
2461246.500000000, A.D. 2026-Jul-25 00:00:00.0000, -4.954396472539463E+09, 4.387414604516670E+09, -1.122953507953691E+08,
2461253.500000000, A.D. 2026-Aug-01 00:00:00.0000, -4.956141649778623E+09, 4.385362777304914E+09, -1.123587808239732E+08,
2461260.500000000, A.D. 2026-Aug-08 00:00:00.0000, -4.957885963894147E+09, 4.383310168218133E+09, -1.124221922013237E+08,
2461267.500000000, A.D. 2026-Aug-15 00:00:00.0000, -4.959629416289444E+09, 4.381256775774007E+09, -1.124855849990606E+08,
2461274.500000000, A.D. 2026-Aug-22 00:00:00.0000, -4.961372006509084E+09, 4.379202598677073E+09, -1.125489594092875E+08,
$$EOE